STARLINK-4527           
1 53436U 22097BA  26068.32779147  .00002715  00000+0  18855-3 0  9997
2 53436  53.2155 105.4282 0001580  97.6291 262.4881 15.08855683198732
DISKSAT B               
1 67220U 25305B   26068.81497770  .00012481  00000+0  82401-3 0  9990
2 67220  45.0018 250.2098 0003783 311.4052  48.6498 15.07484556 12311
